start=new Date('2023-01-07T00:00:00.000Z').valueOf();
sats=[{"REV_AT_EPOCH":"15066","COUNTRY_CODE":"US","INCLINATION":"53.0523","FILE":"3734255","OBJECT_ID":"2020-025AU","MEAN_MOTION":"15.06391266","SITE":"AFETR","OBJECT_TYPE":"PAYLOAD","DECAY_DATE":null,"APOAPSIS":"548.356","NORAD_CAT_ID":"45573","TIME_SYSTEM":"UTC","REF_FRAME":"TEME","PERIAPSIS":"546.125","PERIOD":"95.593","LAUNCH_DATE":"2020-04-22","RA_OF_ASC_NODE":"235.2396","EPHEMERIS_TYPE":"0","TLE_LINE2":"2 45573  53.0523 235.2396 0001611  75.1466 284.9701 15.06391266150660","RCS_SIZE":"LARGE","MEAN_ELEMENT_THEORY":"SGP4","ARG_OF_PERICENTER":"75.1466","TLE_LINE1":"1 45573U 20025AU  23006.65562161 -.00004318  00000-0 -27124-3 0  9993","MEAN_MOTION_DDOT":"0.0000000000000","MEAN_MOTION_DOT":"-0.00004318","CENTER_NAME":"EARTH","SEMIMAJOR_AXIS":"6925.375","OBJECT_NAME":"STARLINK-1321","BSTAR":"-0.00027124000000","EPOCH":"2023-01-06T15:44:05.707104","ECCENTRICITY":"0.00016110","ELEMENT_SET_NO":"999","CLASSIFICATION_TYPE":"U","MEAN_ANOMALY":"284.9701","GP_ID":"222340580"},{"ARG_OF_PERICENTER":"91.7830","MEAN_ELEMENT_THEORY":"SGP4","RCS_SIZE":"LARGE","TLE_LINE2":"2 45574  53.0538 236.6056 0001844  91.7830 268.3370 15.06369452150932","EPHEMERIS_TYPE":"0","MEAN_MOTION_DOT":"0.00006569","MEAN_MOTION_DDOT":"0.0000000000000","TLE_LINE1":"1 45574U 20025AV  23006.34970451  .00006569  00000-0  45984-3 0  9997","DECAY_DATE":null,"SITE":"AFETR","MEAN_MOTION":"15.06369452","OBJECT_TYPE":"PAYLOAD","OBJECT_ID":"2020-025AV","FILE":"3734255","INCLINATION":"53.0538","COUNTRY_CODE":"US","REV_AT_EPOCH":"15093","RA_OF_ASC_NODE":"236.6056","LAUNCH_DATE":"2020-04-22","PERIOD":"95.594","PERIAPSIS":"546.030","REF_FRAME":"TEME","TIME_SYSTEM":"UTC","NORAD_CAT_ID":"45574","APOAPSIS":"548.584","CLASSIFICATION_TYPE":"U","ELEMENT_SET_NO":"999","ECCENTRICITY":"0.00018440","EPOCH":"2023-01-06T08:23:34.469664","GP_ID":"222341329","MEAN_ANOMALY":"268.3370","OBJECT_NAME":"STARLINK-1324","SEMIMAJOR_AXIS":"6925.442","CENTER_NAME":"EARTH","BSTAR":"0.00045984000000"},{"INCLINATION":"53.0015","FILE":"3734255","COUNTRY_CODE":"US","REV_AT_EPOCH":"15135","OBJECT_TYPE":"PAYLOAD","SITE":"AFETR","MEAN_MOTION":"15.26580754","DECAY_DATE":null,"OBJECT_ID":"2020-025AW","TIME_SYSTEM":"UTC","APOAPSIS":"489.639","NORAD_CAT_ID":"45575","LAUNCH_DATE":"2020-04-22","PERIOD":"94.328","RA_OF_ASC_NODE":"204.5056","REF_FRAME":"TEME","PERIAPSIS":"482.451","RCS_SIZE":"LARGE","EPHEMERIS_TYPE":"0","TLE_LINE2":"2 45575  53.0015 204.5056 0005236 150.7272 209.4019 15.26580754151357","ARG_OF_PERICENTER":"150.7272","MEAN_ELEMENT_THEORY":"SGP4","MEAN_MOTION_DDOT":"0.0000000000000","TLE_LINE1":"1 45575U 20025AW  23006.56191540  .00058044  00000-0  21843-2 0  9998","MEAN_MOTION_DOT":"0.00058044","CENTER_NAME":"EARTH","OBJECT_NAME":"STARLINK-1326","SEMIMAJOR_AXIS":"6864.180","BSTAR":"0.00218430000000","EPOCH":"2023-01-06T13:29:09.490560","ELEMENT_SET_NO":"999","CLASSIFICATION_TYPE":"U","ECCENTRICITY":"0.00052360","GP_ID":"222339579","MEAN_ANOMALY":"209.4019"},{"REV_AT_EPOCH":"15097","COUNTRY_CODE":"US","INCLINATION":"53.0529","FILE":"3734255","OBJECT_ID":"2020-025AX","SITE":"AFETR","MEAN_MOTION":"15.06387360","OBJECT_TYPE":"PAYLOAD","DECAY_DATE":null,"APOAPSIS":"548.485","NORAD_CAT_ID":"45576","TIME_SYSTEM":"UTC","REF_FRAME":"TEME","PERIAPSIS":"546.020","PERIOD":"95.593","LAUNCH_DATE":"2020-04-22","RA_OF_ASC_NODE":"235.3156","EPHEMERIS_TYPE":"0","TLE_LINE2":"2 45576  53.0529 235.3156 0001780  69.2562 290.8618 15.06387360150979","RCS_SIZE":"LARGE","MEAN_ELEMENT_THEORY":"SGP4","ARG_OF_PERICENTER":"69.2562","TLE_LINE1":"1 45576U 20025AX  23006.64087631 -.00004433  00000-0 -27898-3 0  9995","MEAN_MOTION_DDOT":"0.0000000000000","MEAN_MOTION_DOT":"-0.00004433","CENTER_NAME":"EARTH","SEMIMAJOR_AXIS":"6925.387","OBJECT_NAME":"STARLINK-1328","BSTAR":"-0.00027898000000","EPOCH":"2023-01-06T15:22:51.713184","ECCENTRICITY":"0.00017800","ELEMENT_SET_NO":"999","CLASSIFICATION_TYPE":"U","MEAN_ANOMALY":"290.8618","GP_ID":"222339829"},{"BSTAR":"0.00209130000000","CENTER_NAME":"EARTH","SEMIMAJOR_AXIS":"6905.677","OBJECT_NAME":"STARLINK-1330","MEAN_ANOMALY":"239.7650","GP_ID":"222341079","EPOCH":"2023-01-06T07:34:59.837376","ECCENTRICITY":"0.00031160","CLASSIFICATION_TYPE":"U","ELEMENT_SET_NO":"999","NORAD_CAT_ID":"45577","APOAPSIS":"529.693","TIME_SYSTEM":"UTC","PERIAPSIS":"525.390","REF_FRAME":"TEME","RA_OF_ASC_NODE":"233.8152","PERIOD":"95.185","LAUNCH_DATE":"2020-04-22","COUNTRY_CODE":"US","REV_AT_EPOCH":"15095","FILE":"3734255","INCLINATION":"53.0518","OBJECT_ID":"2020-025AY","DECAY_DATE":null,"SITE":"AFETR","OBJECT_TYPE":"PAYLOAD","MEAN_MOTION":"15.12841423","MEAN_MOTION_DOT":"0.00037079","MEAN_MOTION_DDOT":"0.0000000000000","TLE_LINE1":"1 45577U 20025AY  23006.31597034  .00037079  00000-0  20913-2 0  9993","TLE_LINE2":"2 45577  53.0518 233.8152 0003116 120.3650 239.7650 15.12841423150957","EPHEMERIS_TYPE":"0","RCS_SIZE":"LARGE","MEAN_ELEMENT_THEORY":"SGP4","ARG_OF_PERICENTER":"120.3650"},{"RCS_SIZE":"LARGE","EPHEMERIS_TYPE":"0","TLE_LINE2":"2 45578  53.0541 234.7492 0001401  68.4866 291.6272 15.06396347150991","ARG_OF_PERICENTER":"68.4866","MEAN_ELEMENT_THEORY":"SGP4","TLE_LINE1":"1 45578U 20025AZ  23006.76619246 -.00001382  00000-0 -73932-4 0  9994","MEAN_MOTION_DDOT":"0.0000000000000","MEAN_MOTION_DOT":"-0.00001382","INCLINATION":"53.0541","FILE":"3734255","REV_AT_EPOCH":"15099","COUNTRY_CODE":"US","MEAN_MOTION":"15.06396347","SITE":"AFETR","OBJECT_TYPE":"PAYLOAD","DECAY_DATE":null,"OBJECT_ID":"2020-025AZ","TIME_SYSTEM":"UTC","APOAPSIS":"548.195","NORAD_CAT_ID":"45578","LAUNCH_DATE":"2020-04-22","PERIOD":"95.592","RA_OF_ASC_NODE":"234.7492","REF_FRAME":"TEME","PERIAPSIS":"546.255","EPOCH":"2023-01-06T18:23:19.028544","ELEMENT_SET_NO":"999","CLASSIFICATION_TYPE":"U","ECCENTRICITY":"0.00014010","GP_ID":"222340830","MEAN_ANOMALY":"291.6272","CENTER_NAME":"EARTH","OBJECT_NAME":"STARLINK-1331","SEMIMAJOR_AXIS":"6925.360","BSTAR":"-0.00007393200000"},{"MEAN_MOTION_DOT":"-0.00000125","MEAN_MOTION_DDOT":"0.0000000000000","TLE_LINE1":"1 45579U 20025BA  23006.90628687 -.00000125  00000-0  10529-4 0  9996","ARG_OF_PERICENTER":"95.2260","MEAN_ELEMENT_THEORY":"SGP4","RCS_SIZE":"LARGE","TLE_LINE2":"2 45579  53.0532 194.2706 0001438  95.2260 264.8893 15.06396723151569","EPHEMERIS_TYPE":"0","RA_OF_ASC_NODE":"194.2706","PERIOD":"95.592","LAUNCH_DATE":"2020-04-22","PERIAPSIS":"546.228","REF_FRAME":"TEME","TIME_SYSTEM":"UTC","NORAD_CAT_ID":"45579","APOAPSIS":"548.219","DECAY_DATE":null,"SITE":"AFETR","MEAN_MOTION":"15.06396723","OBJECT_TYPE":"PAYLOAD","OBJECT_ID":"2020-025BA","FILE":"3734255","INCLINATION":"53.0532","COUNTRY_CODE":"US","REV_AT_EPOCH":"15156","GP_ID":"222340079","MEAN_ANOMALY":"264.8893","CLASSIFICATION_TYPE":"U","ELEMENT_SET_NO":"999","ECCENTRICITY":"0.00014380","EPOCH":"2023-01-06T21:45:03.185568","BSTAR":"0.00001052900000","OBJECT_NAME":"STARLINK-1332","SEMIMAJOR_AXIS":"6925.359","CENTER_NAME":"EARTH"},{"ECCENTRICITY":"0.00016480","CLASSIFICATION_TYPE":"U","ELEMENT_SET_NO":"999","EPOCH":"2023-01-06T18:32:38.169600","MEAN_ANOMALY":"281.3276","GP_ID":"222340329","SEMIMAJOR_AXIS":"6925.380","OBJECT_NAME":"STARLINK-1333","CENTER_NAME":"EARTH","BSTAR":"-0.00001463300000","MEAN_ELEMENT_THEORY":"SGP4","ARG_OF_PERICENTER":"78.7898","TLE_LINE2":"2 45580  53.0538 244.7063 0001648  78.7898 281.3276 15.06389760150842","EPHEMERIS_TYPE":"0","RCS_SIZE":"LARGE","MEAN_MOTION_DOT":"-0.00000499","TLE_LINE1":"1 45580U 20025BB  23006.77266400 -.00000499  00000-0 -14633-4 0  9999","MEAN_MOTION_DDOT":"0.0000000000000","OBJECT_ID":"2020-025BB","DECAY_DATE":null,"SITE":"AFETR","OBJECT_TYPE":"PAYLOAD","MEAN_MOTION":"15.06389760","REV_AT_EPOCH":"15084","COUNTRY_CODE":"US","FILE":"3734255","INCLINATION":"53.0538","PERIAPSIS":"546.104","REF_FRAME":"TEME","RA_OF_ASC_NODE":"244.7063","LAUNCH_DATE":"2020-04-22","PERIOD":"95.593","NORAD_CAT_ID":"45580","APOAPSIS":"548.386","TIME_SYSTEM":"UTC"},{"MEAN_MOTION_DDOT":"0.0000000000000","TLE_LINE1":"1 45581U 20025BC  23006.64455889 -.00003475  00000-0 -21457-3 0  9995","MEAN_MOTION_DOT":"-0.00003475","EPHEMERIS_TYPE":"0","TLE_LINE2":"2 45581  53.0519 235.2877 0001551 109.1928 250.9228 15.06390559150966","RCS_SIZE":"LARGE","MEAN_ELEMENT_THEORY":"SGP4","ARG_OF_PERICENTER":"109.1928","APOAPSIS":"548.317","NORAD_CAT_ID":"45581","TIME_SYSTEM":"UTC","REF_FRAME":"TEME","PERIAPSIS":"546.168","LAUNCH_DATE":"2020-04-22","PERIOD":"95.593","RA_OF_ASC_NODE":"235.2877","REV_AT_EPOCH":"15096","COUNTRY_CODE":"US","INCLINATION":"53.0519","FILE":"3734255","OBJECT_ID":"2020-025BC","SITE":"AFETR","MEAN_MOTION":"15.06390559","OBJECT_TYPE":"PAYLOAD","DECAY_DATE":null,"MEAN_ANOMALY":"250.9228","GP_ID":"222340581","EPOCH":"2023-01-06T15:28:09.888096","ECCENTRICITY":"0.00015510","ELEMENT_SET_NO":"999","CLASSIFICATION_TYPE":"U","BSTAR":"-0.00021457000000","CENTER_NAME":"EARTH","SEMIMAJOR_AXIS":"6925.377","OBJECT_NAME":"STARLINK-1335"},{"OBJECT_NAME":"STARLINK-1337","SEMIMAJOR_AXIS":"6925.390","CENTER_NAME":"EARTH","BSTAR":"-0.00019199000000","CLASSIFICATION_TYPE":"U","ELEMENT_SET_NO":"999","ECCENTRICITY":"0.00015120","EPOCH":"2023-01-06T16:00:01.164960","GP_ID":"222341330","MEAN_ANOMALY":"261.5643","DECAY_DATE":null,"SITE":"AFETR","OBJECT_TYPE":"PAYLOAD","MEAN_MOTION":"15.06386441","OBJECT_ID":"2020-025BD","FILE":"3734255","INCLINATION":"53.0503","COUNTRY_CODE":"US","REV_AT_EPOCH":"15096","RA_OF_ASC_NODE":"235.1922","LAUNCH_DATE":"2020-04-22","PERIOD":"95.593","PERIAPSIS":"546.208","REF_FRAME":"TEME","TIME_SYSTEM":"UTC","NORAD_CAT_ID":"45582","APOAPSIS":"548.302","ARG_OF_PERICENTER":"98.5517","MEAN_ELEMENT_THEORY":"SGP4","RCS_SIZE":"LARGE","TLE_LINE2":"2 45582  53.0503 235.1922 0001512  98.5517 261.5643 15.06386441150966","EPHEMERIS_TYPE":"0","MEAN_MOTION_DOT":"-0.00003139","MEAN_MOTION_DDOT":"0.0000000000000","TLE_LINE1":"1 45582U 20025BD  23006.66668015 -.00003139  00000-0 -19199-3 0  9992"}];
